ONEWEB-0311             
1 49097U 21075Y   25105.49920240  .00000038  00000+0  64754-4 0  9997
2 49097  87.9014  91.0348 0002235  96.4695 263.6691 13.17647293177300
ONEWEB-0312             
1 49098U 21075Z   25105.51438837 -.00000360  00000+0 -96034-3 0  9992
2 49098  87.9016  91.0629 0001928  99.9572 260.1777 13.17648049177289
ONEWEB-0313             
1 49099U 21075AA  25104.98779011 -.00000016  00000+0 -75700-4 0  9991
2 49099  87.9014  91.1835 0002138  88.4929 271.6447 13.17646822177201
ONEWEB-0314             
1 49100U 21075AB  25105.25789803  .00000059  00000+0  11955-3 0  9991
2 49100  87.9011  91.0636 0001970  99.9720 260.1634 13.17646504177217
ONEWEB-0315             
1 49101U 21075AC  25105.29019936  .00000450  00000+0  12165-2 0  9997
2 49101  87.8834  75.7839 0002341  90.1772 269.9625 13.12442364179040
ONEWEB-0316             
1 49102U 21075AD  25105.59545136  .00000053  00000+0  10083-3 0  9994
2 49102  87.9121  60.4579 0002159  86.5581 273.5798 13.18685199180851
ONEWEB-0317             
1 49103U 21075AE  25105.28369396  .00000425  00000+0  11453-2 0  9997
2 49103  87.8835  75.7996 0001467  79.8898 280.2396 13.12440965179066
ONEWEB-0318             
1 49104U 21075AF  25105.28878382  .00000060  00000+0  12019-3 0  9993
2 49104  87.9116  60.5046 0002229  88.1798 271.9590 13.18684567180774
